CSG-2                   
1 51444U 22008A   22338.48626554  .00000285  00000+0  42295-4 0  9998
2 51444  97.8872 159.7347 0001429  83.4175 276.7212 14.82160530 45401
INS-2TD                 
1 51658U 22013C   22338.49840275  .00005899  00000+0  30510-3 0  9992
2 51658  97.5544 345.7295 0009666 336.7299  23.3495 15.16599161 44426
GAOFEN 12-3             
1 52912U 22069A   22338.52281773  .00001064  00000+0  14581-3 0  9993
2 52912  97.9710 225.0137 0002184  31.9054 328.2294 14.80523444 23641
